{
  "norad_id": 65629,
  "name": "STARLINK-35135",
  "history": [
    {
      "epoch": "2026-03-28T18:34:18.867936Z",
      "apogee_km": 475.88139134963967,
      "perigee_km": 474.45151811684354,
      "latitude_deg": 2.357441857652411e-05,
      "longitude_deg": 113.61954413813157,
      "height_km": 475.99760771430294,
      "semi_major_axis_km": 6853.303454733242,
      "eccentricity": 0.00010432,
      "inclination_deg": 53.1587,
      "raan_deg": 218.3876,
      "arg_perigee_deg": 84.6146,
      "mean_anomaly_deg": 275.4974,
      "mean_motion_rev_day": 15.30216282
    }
  ]
}